{
  "type": "FeatureCollection",
  "features": [
    {
      "type": "Feature",
      "properties": {
        "norad_id": 34022,
        "name": "COSMOS 2251 DEB",
        "group": "cosmos-2251-debris",
        "lat": -72.26349968136797,
        "lon": 156.67930213429253,
        "alt_km": 765.0249244324596,
        "timestamp": "2025-12-11T08:58:27.518793+00:00",
        "meta_object_name": "COSMOS 2251 DEB",
        "meta_object_id": "1993-036HH",
        "meta_epoch": "2025-12-10T14:13:40.269216",
        "meta_mean_motion": 14.38958379,
        "meta_eccentricity": 0.0022647,
        "meta_inclination": 74.0542,
        "meta_ra_of_asc_node": 274.7506,
        "meta_arg_of_pericenter": 340.0797,
        "meta_mean_anomaly": 197.6313,
        "meta_ephemeris_type": 0,
        "meta_classification_type": "U",
        "meta_norad_cat_id": 34022,
        "meta_element_set_no": 999,
        "meta_rev_at_epoch": 88164,
        "meta_bstar": 0.00040867,
        "meta_mean_motion_dot": 1.238e-05,
        "meta_mean_motion_ddot": 0,
        "tle_line1": "1 34022U 93036HH  25344.59282719  .00001238  00000+0  40867-3 0  9994",
        "tle_line2": "2 34022  74.0542 274.7506 0022647 340.0797 197.6313 14.38958379881641"
      },
      "geometry": {
        "type": "Point",
        "coordinates": [
          156.67930213429253,
          -72.26349968136797
        ]
      }
    },
    {
      "type": "Feature",
      "properties": {
        "norad_id": 34023,
        "name": "COSMOS 2251 DEB",
        "group": "cosmos-2251-debris",
        "lat": 5.729304298907621,
        "lon": 72.62376179118306,
        "alt_km": 771.6207721045994,
        "timestamp": "2025-12-11T08:58:27.518803+00:00",
        "meta_object_name": "COSMOS 2251 DEB",
        "meta_object_id": "1993-036HJ",
        "meta_epoch": "2025-12-11T05:25:36.741216",
        "meta_mean_motion": 14.40555601,
        "meta_eccentricity": 0.0018425,
        "meta_inclination": 74.0252,
        "meta_ra_of_asc_node": 254.5441,
        "meta_arg_of_pericenter": 350.5292,
        "meta_mean_anomaly": 137.1772,
        "meta_ephemeris_type": 0,
        "meta_classification_type": "U",
        "meta_norad_cat_id": 34023,
        "meta_element_set_no": 999,
        "meta_rev_at_epoch": 88192,
        "meta_bstar": 0.00051397,
        "meta_mean_motion_dot": 1.614e-05,
        "meta_mean_motion_ddot": 0,
        "tle_line1": "1 34023U 93036HJ  25345.22611969  .00001614  00000+0  51397-3 0  9997",
        "tle_line2": "2 34023  74.0252 254.5441 0018425 350.5292 137.1772 14.40555601881922"
      },
      "geometry": {
        "type": "Point",
        "coordinates": [
          72.62376179118306,
          5.729304298907621
        ]
      }
    },
    {
      "type": "Feature",
      "properties": {
        "norad_id": 34024,
        "name": "COSMOS 2251 DEB",
        "group": "cosmos-2251-debris",
        "lat": -27.604015092608194,
        "lon": 147.09897984538327,
        "alt_km": 793.3336024822374,
        "timestamp": "2025-12-11T08:58:27.518814+00:00",
        "meta_object_name": "COSMOS 2251 DEB",
        "meta_object_id": "1993-036HK",
        "meta_epoch": "2025-12-11T04:43:58.308960",
        "meta_mean_motion": 14.35393418,
        "meta_eccentricity": 0.0020958,
        "meta_inclination": 74.0464,
        "meta_ra_of_asc_node": 318.8207,
        "meta_arg_of_pericenter": 9.9095,
        "meta_mean_anomaly": 6.0215,
        "meta_ephemeris_type": 0,
        "meta_classification_type": "U",
        "meta_norad_cat_id": 34024,
        "meta_element_set_no": 999,
        "meta_rev_at_epoch": 88002,
        "meta_bstar": 0.00030724,
        "meta_mean_motion_dot": 8.58e-06,
        "meta_mean_motion_ddot": 0,
        "tle_line1": "1 34024U 93036HK  25345.19720265  .00000858  00000+0  30724-3 0  9994",
        "tle_line2": "2 34024  74.0464 318.8207 0020958   9.9095   6.0215 14.35393418880028"
      },
      "geometry": {
        "type": "Point",
        "coordinates": [
          147.09897984538327,
          -27.604015092608194
        ]
      }
    },
    {
      "type": "Feature",
      "properties": {
        "norad_id": 34026,
        "name": "COSMOS 2251 DEB",
        "group": "cosmos-2251-debris",
        "lat": 69.04135704844478,
        "lon": 29.072573943690777,
        "alt_km": 1181.9402188945924,
        "timestamp": "2025-12-11T08:58:27.518824+00:00",
        "meta_object_name": "COSMOS 2251 DEB",
        "meta_object_id": "1993-036HM",
        "meta_epoch": "2025-12-10T23:56:25.694304",
        "meta_mean_motion": 13.65304415,
        "meta_eccentricity": 0.0350735,
        "meta_inclination": 73.7669,
        "meta_ra_of_asc_node": 340.1828,
        "meta_arg_of_pericenter": 210.4558,
        "meta_mean_anomaly": 179.7147,
        "meta_ephemeris_type": 0,
        "meta_classification_type": "U",
        "meta_norad_cat_id": 34026,
        "meta_element_set_no": 999,
        "meta_rev_at_epoch": 83508,
        "meta_bstar": 0.0010695,
        "meta_mean_motion_dot": 1.3e-05,
        "meta_mean_motion_ddot": 0,
        "tle_line1": "1 34026U 93036HM  25344.99751961  .00001300  00000+0  10695-2 0  9997",
        "tle_line2": "2 34026  73.7669 340.1828 0350735 210.4558 179.7147 13.65304415835081"
      },
      "geometry": {
        "type": "Point",
        "coordinates": [
          29.072573943690777,
          69.04135704844478
        ]
      }
    },
    {
      "type": "Feature",
      "properties": {
        "norad_id": 34028,
        "name": "COSMOS 2251 DEB",
        "group": "cosmos-2251-debris",
        "lat": -43.393854319572036,
        "lon": -26.519210685182085,
        "alt_km": 1596.3482047426796,
        "timestamp": "2025-12-11T08:58:27.518835+00:00",
        "meta_object_name": "COSMOS 2251 DEB",
        "meta_object_id": "1993-036HP",
        "meta_epoch": "2025-12-11T02:14:57.629184",
        "meta_mean_motion": 13.2062086,
        "meta_eccentricity": 0.0543752,
        "meta_inclination": 73.8832,
        "meta_ra_of_asc_node": 349.7739,
        "meta_arg_of_pericenter": 127.9004,
        "meta_mean_anomaly": 295.6216,
        "meta_ephemeris_type": 0,
        "meta_classification_type": "U",
        "meta_norad_cat_id": 34028,
        "meta_element_set_no": 999,
        "meta_rev_at_epoch": 80986,
        "meta_bstar": 0.00047996,
        "meta_mean_motion_dot": 4.07e-06,
        "meta_mean_motion_ddot": 0,
        "tle_line1": "1 34028U 93036HP  25345.09372256  .00000407  00000+0  47996-3 0  9999",
        "tle_line2": "2 34028  73.8832 349.7739 0543752 127.9004 295.6216 13.20620860809861"
      },
      "geometry": {
        "type": "Point",
        "coordinates": [
          -26.519210685182085,
          -43.393854319572036
        ]
      }
    },
    {
      "type": "Feature",
      "properties": {
        "norad_id": 34031,
        "name": "COSMOS 2251 DEB",
        "group": "cosmos-2251-debris",
        "lat": -72.77410253546543,
        "lon": 70.69508390706191,
        "alt_km": 685.7503458718074,
        "timestamp": "2025-12-11T08:58:27.518845+00:00",
        "meta_object_name": "COSMOS 2251 DEB",
        "meta_object_id": "1993-036HS",
        "meta_epoch": "2025-12-11T04:40:29.316000",
        "meta_mean_motion": 14.59654091,
        "meta_eccentricity": 0.0022982,
        "meta_inclination": 74.0126,
        "meta_ra_of_asc_node": 138.6584,
        "meta_arg_of_pericenter": 259.0525,
        "meta_mean_anomaly": 156.3728,
        "meta_ephemeris_type": 0,
        "meta_classification_type": "U",
        "meta_norad_cat_id": 34031,
        "meta_element_set_no": 999,
        "meta_rev_at_epoch": 88543,
        "meta_bstar": 0.0020973,
        "meta_mean_motion_dot": 0.00010011,
        "meta_mean_motion_ddot": 0,
        "tle_line1": "1 34031U 93036HS  25345.19478375  .00010011  00000+0  20973-2 0  9990",
        "tle_line2": "2 34031  74.0126 138.6584 0022982 259.0525 156.3728 14.59654091885433"
      },
      "geometry": {
        "type": "Point",
        "coordinates": [
          70.69508390706191,
          -72.77410253546543
        ]
      }
    },
    {
      "type": "Feature",
      "properties": {
        "norad_id": 34035,
        "name": "COSMOS 2251 DEB",
        "group": "cosmos-2251-debris",
        "lat": 58.09865302141805,
        "lon": 144.38889011712797,
        "alt_km": 731.2770488743172,
        "timestamp": "2025-12-11T08:58:27.518856+00:00",
        "meta_object_name": "COSMOS 2251 DEB",
        "meta_object_id": "1993-036HW",
        "meta_epoch": "2025-12-11T00:18:07.863264",
        "meta_mean_motion": 14.51903419,
        "meta_eccentricity": 0.0044576,
        "meta_inclination": 74.0662,
        "meta_ra_of_asc_node": 352.387,
        "meta_arg_of_pericenter": 354.2553,
        "meta_mean_anomaly": 35.3804,
        "meta_ephemeris_type": 0,
        "meta_classification_type": "U",
        "meta_norad_cat_id": 34035,
        "meta_element_set_no": 999,
        "meta_rev_at_epoch": 87941,
        "meta_bstar": 0.0024304,
        "meta_mean_motion_dot": 9.912e-05,
        "meta_mean_motion_ddot": 0,
        "tle_line1": "1 34035U 93036HW  25345.01259101  .00009912  00000+0  24304-2 0  9999",
        "tle_line2": "2 34035  74.0662 352.3870 0044576 354.2553  35.3804 14.51903419879412"
      },
      "geometry": {
        "type": "Point",
        "coordinates": [
          144.38889011712797,
          58.09865302141805
        ]
      }
    }
  ]
}